STARLINK-3546
1 51718U 22016E   26092.73486845  .00053247  00000+0  27075-2 0  9990
2 51718  53.2105 217.3134 0002863  10.0858 350.0195 15.16358736228237
